NORAD_CAT_ID,OBJECT_NAME,OBJECT_TYPE,EPOCH,MEAN_MOTION,ECCENTRICITY,INCLINATION,RA_OF_ASC_NODE,ARG_OF_PERICENTER,MEAN_ANOMALY,BSTAR,MEAN_MOTION_DOT,MEAN_MOTION_DDOT,TLE_LINE0,TLE_LINE1,TLE_LINE2,SEMIMAJOR_AXIS,PERIOD,APOGEE,PERIGEE,DECAYED
51881.0,STARLINK-3504,PAYLOAD,2024-04-06 11:54:42,15.08837947,0.0001307,53.2179,271.3867,89.2394,270.8748,2.5372e-05,1.16e-06,0.0,0 STARLINK-3504,1 51881U 22022AF  24097.49632502  .00000116  00000-0  25372-4 0  9995,2 51881  53.2179 271.3867 0001307  89.2394 270.8748 15.08837947117290,6917.887,95.438,540.656,538.847,0.0
51881.0,STARLINK-3504,PAYLOAD,2024-04-07 11:45:29,15.08842936,0.0001338,53.218,266.9274,88.7065,271.408,-2.5441e-06,-3.28e-06,0.0,0 STARLINK-3504,1 51881U 22022AF  24098.48992290 -.00000328  00000-0 -25441-5 0  9993,2 51881  53.2180 266.9274 0001338  88.7065 271.4080 15.08842936117444,6917.871,95.437,540.662,538.811,0.0
51881.0,STARLINK-3504,PAYLOAD,2024-04-07 18:07:02,15.08838545,0.0001428,53.2182,265.7363,93.117,266.9986,-4.3449e-05,-9.79e-06,0.0,0 STARLINK-3504,1 51881U 22022AF  24098.75488644 -.00000979  00000-0 -43449-4 0  9995,2 51881  53.2182 265.7363 0001428  93.1170 266.9986 15.08838545117488,6917.885,95.438,540.738,538.762,0.0
51881.0,STARLINK-3504,PAYLOAD,2024-04-08 03:39:21,15.08833923,0.0001257,53.2177,263.9509,85.2069,274.9066,-2.1599e-07,-2.91e-06,0.0,0 STARLINK-3504,1 51881U 22022AF  24099.15232900 -.00000291  00000-0 -21599-6 0  9993,2 51881  53.2177 263.9509 0001257  85.2069 274.9066 15.08833923117543,6917.899,95.438,540.634,538.894,0.0
51881.0,STARLINK-3504,PAYLOAD,2024-04-08 19:33:12,15.08835211,0.0001185,53.2181,260.9789,91.0225,269.0903,1.0419e-05,-1.22e-06,0.0,0 STARLINK-3504,1 51881U 22022AF  24099.81473010 -.00000122  00000-0  10419-4 0  9994,2 51881  53.2181 260.9789 0001185  91.0225 269.0903 15.08835211117642,6917.895,95.438,540.58,538.94,0.0
51881.0,STARLINK-3504,PAYLOAD,2024-04-09 03:30:08,15.08833261,0.0001228,53.2187,259.4929,92.4332,267.6801,7.6394e-05,9.28e-06,0.0,0 STARLINK-3504,1 51881U 22022AF  24100.14592949  .00000928  00000-0  76394-4 0  9993,2 51881  53.2187 259.4929 0001228  92.4332 267.6801 15.08833261117698,6917.901,95.438,540.616,538.916,0.0
51881.0,STARLINK-3504,PAYLOAD,2024-04-09 19:23:59,15.08833586,0.0001239,53.2184,256.5192,91.4915,268.6219,6.5816e-05,7.6e-06,0.0,0 STARLINK-3504,1 51881U 22022AF  24100.80833279  .00000760  00000-0  65816-4 0  9991,2 51881  53.2184 256.5192 0001239  91.4915 268.6219 15.08833586117798,6917.9,95.438,540.622,538.908,0.0
51881.0,STARLINK-3504,PAYLOAD,2024-04-10 09:42:28,15.08832805,0.0001341,53.2168,253.8428,87.1494,272.9651,3.8947e-05,3.32e-06,0.0,0 STARLINK-3504,1 51881U 22022AF  24101.40449767  .00000332  00000-0  38947-4 0  9993,2 51881  53.2168 253.8428 0001341  87.1494 272.9651 15.08832805117881,6917.902,95.438,540.695,538.84,0.0
51881.0,STARLINK-3504,PAYLOAD,2024-04-10 17:39:24,15.0883638,0.0001225,53.2172,252.3564,85.6395,274.4737,3.3784e-05,2.5e-06,0.0,0 STARLINK-3504,1 51881U 22022AF  24101.73569646  .00000250  00000-0  33784-4 0  9991,2 51881  53.2172 252.3564 0001225  85.6395 274.4737 15.08836380117935,6917.891,95.438,540.604,538.909,0.0
51881.0,STARLINK-3504,PAYLOAD,2024-04-11 03:11:42,15.08840613,0.000122,53.2174,250.5722,85.9193,274.1939,6.4666e-05,7.41e-06,0.0,0 STARLINK-3504,1 51881U 22022AF  24102.13313332  .00000741  00000-0  64666-4 0  9993,2 51881  53.2174 250.5722 0001220  85.9193 274.1939 15.08840613117998,6917.879,95.438,540.587,538.9,0.0
51881.0,STARLINK-3504,PAYLOAD,2024-04-11 14:19:24,15.08842473,0.0001165,53.2167,248.4912,84.144,275.9684,9.3144e-05,1.195e-05,0.0,0 STARLINK-3504,1 51881U 22022AF  24102.59681125  .00001195  00000-0  93144-4 0  9998,2 51881  53.2167 248.4912 0001165  84.1440 275.9684 15.08842473118062,6917.873,95.437,540.544,538.932,0.0
51881.0,STARLINK-3504,PAYLOAD,2024-04-11 15:54:47,15.08843052,0.0001115,53.2159,248.1934,86.0165,274.0955,9.9619e-05,1.298e-05,0.0,0 STARLINK-3504,1 51881U 22022AF  24102.66305040  .00001298  00000-0  99619-4 0  9992,2 51881  53.2159 248.1934 0001115  86.0165 274.0955 15.08843052118070,6917.871,95.437,540.507,538.965,0.0
51881.0,STARLINK-3504,PAYLOAD,2024-04-12 09:24:02,15.08842414,0.0001328,53.2171,244.9219,93.9543,266.1601,4.1707e-05,3.76e-06,0.0,0 STARLINK-3504,1 51881U 22022AF  24103.39169271  .00000376  00000-0  41707-4 0  9998,2 51881  53.2171 244.9219 0001328  93.9543 266.1601 15.08842414118180,6917.873,95.437,540.657,538.819,0.0
51881.0,STARLINK-3504,PAYLOAD,2024-04-12 14:10:12,15.08841458,0.0001453,53.2164,244.0315,80.1839,279.9317,-6.0148e-05,-1.245e-05,0.0,0 STARLINK-3504,1 51881U 22022AF  24103.59041669 -.00001245  00000-0 -60148-4 0  9998,2 51881  53.2164 244.0315 0001453  80.1839 279.9317 15.08841458118212,6917.876,95.437,540.746,538.736,0.0
51881.0,STARLINK-3504,PAYLOAD,2024-04-13 12:25:36,15.08838202,0.0001335,53.2165,239.8678,84.5166,275.5979,-1.9497e-05,-5.98e-06,0.0,0 STARLINK-3504,1 51881U 22022AF  24104.51777820 -.00000598  00000-0 -19497-4 0  9997,2 51881  53.2165 239.8678 0001335  84.5166 275.5979 15.08838202118351,6917.886,95.438,540.674,538.827,0.0
51881.0,STARLINK-3504,PAYLOAD,2024-04-13 14:00:59,15.08837823,0.0001321,53.2169,239.5704,84.5803,275.534,-2.1966e-05,-6.37e-06,0.0,0 STARLINK-3504,1 51881U 22022AF  24104.58401846 -.00000637  00000-0 -21966-4 0  9994,2 51881  53.2169 239.5704 0001321  84.5803 275.5340 15.08837823118366,6917.887,95.438,540.666,538.838,0.0
51881.0,STARLINK-3504,PAYLOAD,2024-04-13 15:36:22,15.08838789,0.0001442,53.2178,239.2724,96.0288,264.0868,-2.2581e-05,-6.47e-06,0.0,0 STARLINK-3504,1 51881U 22022AF  24104.65025747 -.00000647  00000-0 -22581-4 0  9999,2 51881  53.2178 239.2724 0001442  96.0288 264.0868 15.08838789118375,6917.884,95.438,540.747,538.752,0.0
51881.0,STARLINK-3504,PAYLOAD,2024-04-14 12:16:22,15.08842131,0.0001295,53.2181,235.4083,83.4753,276.6387,0.00010628,1.404e-05,0.0,0 STARLINK-3504,1 51881U 22022AF  24105.51137189  .00001404  00000-0  10628-3 0  9997,2 51881  53.2181 235.4083 0001295  83.4753 276.6387 15.08842131118504,6917.874,95.437,540.635,538.843,0.0
51881.0,STARLINK-3504,PAYLOAD,2024-04-14 15:27:08,15.08843412,0.0001398,53.218,234.8148,64.9879,295.1258,0.00012,1.623e-05,0.0,0 STARLINK-3504,1 51881U 22022AF  24105.64385174  .00001623  00000-0  12000-3 0  9999,2 51881  53.2180 234.8148 0001398  64.9879 295.1258 15.08843412118523,6917.87,95.437,540.702,538.768,0.0
51881.0,STARLINK-3504,PAYLOAD,2024-04-15 12:07:12,15.08824613,0.0001322,53.2174,230.945,62.902,297.2106,-3.0624e-05,-7.75e-06,0.0,0 STARLINK-3504,1 51881U 22022AF  24106.50500197 -.00000775  00000-0 -30624-4 0  9991,2 51881  53.2174 230.9450 0001322  62.9020 297.2106 15.08824613118653,6917.927,95.439,540.707,538.878,0.0
51881.0,STARLINK-3504,PAYLOAD,2024-04-15 13:42:35,15.08828632,0.0001374,53.2174,230.6465,83.5531,276.5618,9.3231e-06,-1.4e-06,0.0,0 STARLINK-3504,1 51881U 22022AF  24106.57123856 -.00000140  00000-0  93231-5 0  9990,2 51881  53.2174 230.6465 0001374  83.5531 276.5618 15.08828632118663,6917.915,95.438,540.731,538.83,0.0
51881.0,STARLINK-3504,PAYLOAD,2024-04-15 15:17:57,15.08833721,0.0001156,53.2173,230.3551,75.0675,285.0445,9.5062e-05,1.225e-05,0.0,0 STARLINK-3504,1 51881U 22022AF  24106.63747312  .00001225  00000-0  95062-4 0  9993,2 51881  53.2173 230.3551 0001156  75.0675 285.0445 15.08833721118677,6917.9,95.438,540.564,538.965,0.0
51881.0,STARLINK-3504,PAYLOAD,2024-04-16 13:33:19,15.08867772,0.000114,53.216,226.1895,81.0057,279.1065,0.00023562,3.467e-05,0.0,0 STARLINK-3504,1 51881U 22022AF  24107.56480606  .00003467  00000-0  23562-3 0  9991,2 51881  53.2160 226.1895 0001140  81.0057 279.1065 15.08867772118812,6917.796,95.436,540.449,538.872,0.0
51881.0,STARLINK-3504,PAYLOAD,2024-04-16 15:08:42,15.08876823,0.0001177,53.2157,225.8911,70.6036,289.5083,0.00056709,8.758e-05,0.0,0 STARLINK-3504,1 51881U 22022AF  24107.63104739  .00008758  00000-0  56709-3 0  9996,2 51881  53.2157 225.8911 0001177  70.6036 289.5083 15.08876823118827,6917.768,95.435,540.447,538.819,0.0
51881.0,STARLINK-3504,PAYLOAD,2024-04-17 13:24:07,15.08843448,0.000173,53.2161,221.7245,79.6259,280.4928,6.3494e-05,7.23e-06,0.0,0 STARLINK-3504,1 51881U 22022AF  24108.55842528  .00000723  00000-0  63494-4 0  9997,2 51881  53.2161 221.7245 0001730  79.6259 280.4928 15.08843448118968,6917.87,95.437,540.932,538.538,0.0
51881.0,STARLINK-3504,PAYLOAD,2024-04-17 14:59:30,15.08848089,0.0001742,53.2169,221.4282,75.9374,284.1812,0.00013081,1.795e-05,0.0,0 STARLINK-3504,1 51881U 22022AF  24108.62466324  .00001795  00000-0  13081-3 0  9997,2 51881  53.2169 221.4282 0001742  75.9374 284.1812 15.08848089118974,6917.856,95.437,540.926,538.516,0.0
51881.0,STARLINK-3504,PAYLOAD,2024-04-18 13:14:54,15.08843548,0.0001966,53.2165,217.2651,76.1854,283.9357,-0.00022841,-3.922e-05,0.0,0 STARLINK-3504,1 51881U 22022AF  24109.55202324 -.00003922  00000-0 -22841-3 0  9998,2 51881  53.2165 217.2651 0001966  76.1854 283.9357 15.08843548119110,6917.87,95.437,541.095,538.374,0.0
51881.0,STARLINK-3504,PAYLOAD,2024-04-18 14:50:16,15.08858649,0.0001437,53.2159,216.9707,107.8596,252.2552,-2.9845e-05,-7.63e-06,0.0,0 STARLINK-3504,1 51881U 22022AF  24109.61825215 -.00000763  00000-0 -29845-4 0  9997,2 51881  53.2159 216.9707 0001437 107.8596 252.2552 15.08858649119124,6917.823,95.436,540.682,538.694,0.0
51881.0,STARLINK-3504,PAYLOAD,2024-04-19 13:05:42,15.08844913,0.0002166,53.2161,212.8107,77.8162,282.3073,0.00011572,1.554e-05,0.0,0 STARLINK-3504,1 51881U 22022AF  24110.54562552  .00001554  00000-0  11572-3 0  9997,2 51881  53.2161 212.8107 0002166  77.8162 282.3073 15.08844913119267,6917.865,95.437,541.229,538.232,0.0
51881.0,STARLINK-3504,PAYLOAD,2024-04-20 12:56:29,15.08819666,0.0001783,53.2172,208.3419,105.8843,254.2346,-0.00046544,-7.684e-05,0.0,0 STARLINK-3504,1 51881U 22022AF  24111.53922800 -.00007684  00000-0 -46544-3 0  9992,2 51881  53.2172 208.3419 0001783 105.8843 254.2346 15.08819666119412,6917.943,95.439,541.041,538.574,0.0
